{"type": "FeatureCollection", "name": "council_boundary", "features": [{"type": "Feature", "geometry": {"type": "Polygon", "coordinates": [[[-2.195953857, 53.091736689], [-2.192177816, 53.090686634], [-2.188967554, 53.090351137], [-2.188911117, 53.09008514], [-2.184949998, 53.090133736], [-2.181562554, 53.089281411], [-2.179839686, 53.091016675], [-2.178532398, 53.091548552], [-2.175690352, 53.089957277], [-2.174879187, 53.089868617], [-2.174269993, 53.090254228], [-2.171700159, 53.089447147], [-2.171466282, 53.089206649], [-2.172104091, 53.088893802], [-2.169298252, 53.086924699], [-2.168627748, 53.085358865], [-2.1689945, 53.085244213], [-2.166242957, 53.082350023], [-2.165531668, 53.079380123], [-2.164803653, 53.078021985], [-2.163608601, 53.076699929], [-2.163831534, 53.075882324], [-2.162777207, 53.073948806], [-2.162804092, 53.073246658], [-2.161829217, 53.073227242], [-2.162045612, 53.073020648], [-2.161662431, 53.072733518], [-2.16204105, 53.072601492], [-2.161933433, 53.072362798], [-2.162594127, 53.07222661], [-2.162160935, 53.071737745], [-2.161490464, 53.07185237], [-2.161349111, 53.071172986], [-2.161741053, 53.071015144], [-2.161101008, 53.070083843], [-2.157476213, 53.07074095], [-2.156584864, 53.070407014], [-2.155454857, 53.070562841], [-2.155009586, 53.069925376], [-2.153786977, 53.069976854], [-2.153340099, 53.069382262], [-2.151573247, 53.07016757], [-2.151180633, 53.069505033], [-2.147953876, 53.070363239], [-2.146480734, 53.06912223], [-2.144961727, 53.06850672], [-2.143621838, 53.068646959], [-2.143018458, 53.069325016], [-2.142624291, 53.069277757], [-2.142397478, 53.068432963], [-2.140080676, 53.068723997], [-2.139818379, 53.068287614], [-2.140483189, 53.067489856], [-2.139437712, 53.066230183], [-2.139094447, 53.065299313], [-2.137727854, 53.065510351], [-2.134779903, 53.064986968], [-2.127777146, 53.065665204], [-2.125372705, 53.064614901], [-2.12649019, 53.062457533], [-2.127366058, 53.059415637], [-2.127437217, 53.053738844], [-2.123990725, 53.052630585], [-2.121428271, 53.051289382], [-2.121748225, 53.050992408], [-2.119818478, 53.049636051], [-2.116582969, 53.048032924], [-2.117254537, 53.047589135], [-2.119583132, 53.047625454], [-2.117966895, 53.046820706], [-2.11820799, 53.046609282], [-2.123306012, 53.04834087], [-2.124790947, 53.048567014], [-2.12722821, 53.048129175], [-2.127058854, 53.047962788], [-2.12929326, 53.048293874], [-2.131778559, 53.047333882], [-2.126508078, 53.04013572], [-2.126420703, 53.039363691], [-2.126919956, 53.038699775], [-2.126493083, 53.038597693], [-2.12693074, 53.037816119], [-2.125950849, 53.03731733], [-2.127411363, 53.035941377], [-2.128183742, 53.03641872], [-2.129167094, 53.035616778], [-2.127019921, 53.033722392], [-2.125571423, 53.033008332], [-2.12501972, 53.033041354], [-2.125002425, 53.032717767], [-2.123730176, 53.03157655], [-2.123705284, 53.030703715], [-2.124354635, 53.029927323], [-2.123249746, 53.027865434], [-2.122196935, 53.028342084], [-2.121292446, 53.027455769], [-2.120482547, 53.02788983], [-2.119678179, 53.027667684], [-2.119179251, 53.027335593], [-2.119392321, 53.027256298], [-2.11880258, 53.026445223], [-2.119536894, 53.026153236], [-2.121372143, 53.02401914], [-2.122075709, 53.02263902], [-2.123763314, 53.021589594], [-2.122904446, 53.020742767], [-2.121637117, 53.020669478], [-2.120860202, 53.020060796], [-2.121129298, 53.019283003], [-2.122488565, 53.019153916], [-2.122493255, 53.01872516], [-2.12196708, 53.018723902], [-2.122040814, 53.018457734], [-2.121502951, 53.018012458], [-2.120488167, 53.018695748], [-2.118519701, 53.018393883], [-2.116182682, 53.016859032], [-2.114896769, 53.016497133], [-2.114607992, 53.016094724], [-2.115930737, 53.014652438], [-2.113742117, 53.013313396], [-2.113276814, 53.013774045], [-2.111925161, 53.013894939], [-2.109638099, 53.013657041], [-2.109908015, 53.013090458], [-2.109278276, 53.012832135], [-2.10894698, 53.013232433], [-2.10823549, 53.013010217], [-2.108359767, 53.012679307], [-2.103466676, 53.010857964], [-2.104019292, 53.010087062], [-2.102627578, 53.008974569], [-2.104106947, 53.007489145], [-2.103429234, 53.007005272], [-2.107252478, 53.004852547], [-2.107185124, 53.003549193], [-2.107866911, 53.002660427], [-2.105016094, 52.997658255], [-2.101278933, 52.995610651], [-2.098569623, 52.997567904], [-2.09703705, 52.99724993], [-2.096860556, 52.997614589], [-2.095740129, 52.997636664], [-2.095106924, 52.998200003], [-2.095097683, 52.998742143], [-2.091766747, 52.998827493], [-2.091276736, 52.998361626], [-2.090146311, 52.99810104], [-2.089940004, 52.997591229], [-2.089531679, 52.99773927], [-2.088517551, 52.99706643], [-2.088475729, 52.996432917], [-2.088057517, 52.99600276], [-2.088734003, 52.995025078], [-2.088280771, 52.994790327], [-2.088379504, 52.993927627], [-2.087809688, 52.993699878], [-2.087879763, 52.993071878], [-2.089327735, 52.991472727], [-2.088704399, 52.990886688], [-2.088912785, 52.990652897], [-2.088385154, 52.990527738], [-2.088078199, 52.989616672], [-2.088479878, 52.989494823], [-2.090104118, 52.990281056], [-2.090355332, 52.990015317], [-2.089845664, 52.989786327], [-2.09038994, 52.98860895], [-2.091799427, 52.988087963], [-2.091545472, 52.987963403], [-2.091690425, 52.98606524], [-2.091996975, 52.985568341], [-2.091724996, 52.985507439], [-2.09186529, 52.985284844], [-2.089993954, 52.984866406], [-2.089246972, 52.984160739], [-2.089999925, 52.983653327], [-2.084789845, 52.981214683], [-2.084516749, 52.981397893], [-2.083392442, 52.979960489], [-2.084936532, 52.978483013], [-2.082250261, 52.977114018], [-2.080997832, 52.977917631], [-2.079653586, 52.975829454], [-2.080775829, 52.975486229], [-2.079238589, 52.974500272], [-2.079458101, 52.974019171], [-2.084203246, 52.975129714], [-2.085957318, 52.973512149], [-2.088024618, 52.974030067], [-2.088318691, 52.973642849], [-2.086836907, 52.972881317], [-2.084140982, 52.969915205], [-2.081520781, 52.96826007], [-2.081952495, 52.968216627], [-2.081230863, 52.966902016], [-2.084555214, 52.966257223], [-2.084453812, 52.96541857], [-2.086840629, 52.965026017], [-2.100279686, 52.960740127], [-2.103070874, 52.963456014], [-2.106169619, 52.962177998], [-2.107199487, 52.962157548], [-2.107231176, 52.962446437], [-2.109596458, 52.962359155], [-2.109142402, 52.959462331], [-2.110183417, 52.957859456], [-2.115117372, 52.956473959], [-2.117718294, 52.956108208], [-2.121656903, 52.956086241], [-2.123055469, 52.95845074], [-2.125029497, 52.960534239], [-2.126871557, 52.963757651], [-2.127921972, 52.965005152], [-2.128783695, 52.96890378], [-2.130403089, 52.971176397], [-2.131442272, 52.971590535], [-2.133980519, 52.973809877], [-2.136651115, 52.973498497], [-2.139363464, 52.973697638], [-2.145710729, 52.976110798], [-2.147394391, 52.974944363], [-2.148956977, 52.972827917], [-2.151569727, 52.971135983], [-2.151482248, 52.968669375], [-2.149841506, 52.965280617], [-2.151370702, 52.964902033], [-2.15098534, 52.964120395], [-2.153771915, 52.963559446], [-2.154169175, 52.964325783], [-2.159499459, 52.963619373], [-2.159396463, 52.963152013], [-2.158166744, 52.963149166], [-2.158324617, 52.961145235], [-2.159588356, 52.961102201], [-2.159856251, 52.959064778], [-2.16181234, 52.957890778], [-2.161364305, 52.957484195], [-2.162426141, 52.956428319], [-2.161854018, 52.954712077], [-2.162594615, 52.953365373], [-2.166893142, 52.952934226], [-2.171119911, 52.951728988], [-2.172238125, 52.955011465], [-2.173260984, 52.954447504], [-2.176813857, 52.953693615], [-2.17608952, 52.952986864], [-2.1743304, 52.949467856], [-2.174505384, 52.947221783], [-2.175704386, 52.947752271], [-2.17741357, 52.947699561], [-2.178584909, 52.948115267], [-2.179255748, 52.947420542], [-2.18156046, 52.946158157], [-2.182924182, 52.947169848], [-2.182098727, 52.947281748], [-2.182092618, 52.94760717], [-2.184602123, 52.949416464], [-2.185154355, 52.950450254], [-2.185997588, 52.951006302], [-2.191253358, 52.950086397], [-2.191798725, 52.951557031], [-2.191773391, 52.953894388], [-2.193207359, 52.955691778], [-2.194291111, 52.9580506], [-2.194236611, 52.960806884], [-2.195127925, 52.962698603], [-2.195376022, 52.964223721], [-2.198721775, 52.966597626], [-2.200438039, 52.968414227], [-2.202224427, 52.968657527], [-2.204688686, 52.96992351], [-2.205417328, 52.972222627], [-2.207169277, 52.97177464], [-2.208745731, 52.973838504], [-2.209845747, 52.977407234], [-2.212423228, 52.980050904], [-2.21251375, 52.98057935], [-2.208036883, 52.980636711], [-2.204340902, 52.981398211], [-2.205226922, 52.981785779], [-2.206388601, 52.982916615], [-2.208406014, 52.983203008], [-2.208837456, 52.984023435], [-2.210358846, 52.984762826], [-2.210031137, 52.985096366], [-2.210473656, 52.985245356], [-2.210688455, 52.98587286], [-2.210277452, 52.986027721], [-2.210608383, 52.986454591], [-2.210206229, 52.986763696], [-2.210590789, 52.987193356], [-2.211487496, 52.987113806], [-2.212494702, 52.988213194], [-2.211890461, 52.988646721], [-2.212551601, 52.989791635], [-2.212338111, 52.990312535], [-2.212694464, 52.990667867], [-2.213196427, 52.992477454], [-2.212496648, 52.992553297], [-2.212779013, 52.99302208], [-2.212402277, 52.993347264], [-2.212949857, 52.993817279], [-2.212760303, 52.994063945], [-2.213446163, 52.994473499], [-2.213561301, 52.99577583], [-2.213217635, 52.996483973], [-2.215020302, 52.999433682], [-2.21497211, 52.999946193], [-2.216103029, 53.001431801], [-2.217190378, 53.001636605], [-2.215874474, 53.002510075], [-2.217848485, 53.003899771], [-2.214536399, 53.006139595], [-2.211529525, 53.007030295], [-2.212624574, 53.008300913], [-2.212331328, 53.008372451], [-2.21307647, 53.009725787], [-2.214616727, 53.009415144], [-2.215065775, 53.009952334], [-2.214420713, 53.010167875], [-2.215528642, 53.010568602], [-2.21576665, 53.011072462], [-2.215262294, 53.012446465], [-2.215643188, 53.013802236], [-2.214926681, 53.014039496], [-2.215530626, 53.015283135], [-2.21365511, 53.015963698], [-2.208329859, 53.016716503], [-2.205943534, 53.018326098], [-2.202516692, 53.019959884], [-2.204305226, 53.022056707], [-2.20511112, 53.023504395], [-2.206622553, 53.031467393], [-2.209211003, 53.035858049], [-2.216347466, 53.041737556], [-2.217179058, 53.041914865], [-2.219325298, 53.043961321], [-2.219404883, 53.044640722], [-2.220778839, 53.046730814], [-2.223343762, 53.053226752], [-2.224128321, 53.054348931], [-2.225363189, 53.057694081], [-2.225694888, 53.057698932], [-2.226022495, 53.058947329], [-2.22581707, 53.059010375], [-2.227917937, 53.063730724], [-2.230542714, 53.063421807], [-2.232790055, 53.063719441], [-2.234139702, 53.064392739], [-2.233510878, 53.066217872], [-2.236641945, 53.06788], [-2.237031573, 53.069550258], [-2.238507679, 53.071170798], [-2.238295448, 53.071937052], [-2.237614456, 53.072410297], [-2.238761352, 53.073339265], [-2.237441442, 53.074337075], [-2.236066177, 53.074765866], [-2.234894602, 53.075902646], [-2.23406617, 53.075622018], [-2.231419147, 53.078026351], [-2.230071191, 53.077744912], [-2.227351237, 53.079539028], [-2.226531981, 53.078966464], [-2.225142325, 53.079331103], [-2.221543077, 53.081018482], [-2.220686484, 53.082129241], [-2.216737066, 53.082661673], [-2.216977867, 53.083137382], [-2.21640373, 53.084038869], [-2.216639918, 53.084645982], [-2.215878937, 53.085309859], [-2.214033947, 53.085680938], [-2.211517462, 53.086739849], [-2.210051789, 53.085619685], [-2.207136895, 53.087047832], [-2.201370642, 53.086700029], [-2.201902626, 53.087768782], [-2.201709189, 53.087918377], [-2.201991869, 53.088004165], [-2.201612105, 53.08821878], [-2.201544235, 53.089029653], [-2.199585775, 53.089469001], [-2.200387449, 53.091699609], [-2.198562887, 53.092733168], [-2.196664557, 53.092410036], [-2.195953857, 53.091736689]]]}, "properties": {"gss_code": "E06000021", "name": "Stoke-on-Trent"}}]}