{
 "type": "FeatureCollection",
 "name": "persistent_candidates",
 "crs": {
  "type": "name",
  "properties": {
   "name": "urn:ogc:def:crs:OGC:1.3:CRS84"
  }
 },
 "features": [
  {
   "type": "Feature",
   "geometry": {
    "type": "MultiPolygon",
    "coordinates": [
     [
      [
       [
        -2.211959061,
        53.004306129
       ],
       [
        -2.211962335,
        53.004126357
       ],
       [
        -2.211664319,
        53.004124382
       ],
       [
        -2.211661043,
        53.004304153
       ],
       [
        -2.211959061,
        53.004306129
       ]
      ]
     ],
     [
      [
       [
        -2.212263625,
        53.00394856
       ],
       [
        -2.212266897,
        53.003768789
       ],
       [
        -2.211968883,
        53.003766814
       ],
       [
        -2.211965609,
        53.003946586
       ],
       [
        -2.212263625,
        53.00394856
       ]
      ]
     ],
     [
      [
       [
        -2.213753703,
        53.003958422
       ],
       [
        -2.213760236,
        53.003598879
       ],
       [
        -2.213462222,
        53.003596908
       ],
       [
        -2.213455687,
        53.003956451
       ],
       [
        -2.213753703,
        53.003958422
       ]
      ]
     ],
     [
      [
       [
        -2.212564912,
        53.003770763
       ],
       [
        -2.212568183,
        53.003590991
       ],
       [
        -2.21227017,
        53.003589017
       ],
       [
        -2.212266897,
        53.003768789
       ],
       [
        -2.212564912,
        53.003770763
       ]
      ]
     ],
     [
      [
       [
        -2.212866196,
        53.003592964
       ],
       [
        -2.212869466,
        53.003413192
       ],
       [
        -2.212571454,
        53.00341122
       ],
       [
        -2.212568183,
        53.003590991
       ],
       [
        -2.212866196,
        53.003592964
       ]
      ]
     ],
     [
      [
       [
        -2.213763502,
        53.003419107
       ],
       [
        -2.213766768,
        53.003239335
       ],
       [
        -2.213468758,
        53.003237365
       ],
       [
        -2.21346549,
        53.003417136
       ],
       [
        -2.213763502,
        53.003419107
       ]
      ]
     ],
     [
      [
       [
        -2.211975431,
        53.003407271
       ],
       [
        -2.211978704,
        53.0032275
       ],
       [
        -2.211680694,
        53.003225525
       ],
       [
        -2.211677419,
        53.003405296
       ],
       [
        -2.211975431,
        53.003407271
       ]
      ]
     ],
     [
      [
       [
        -2.212276715,
        53.003229474
       ],
       [
        -2.212279987,
        53.003049703
       ],
       [
        -2.211981978,
        53.003047728
       ],
       [
        -2.211978704,
        53.0032275
       ],
       [
        -2.212276715,
        53.003229474
       ]
      ]
     ],
     [
      [
       [
        -2.210786663,
        53.003219595
       ],
       [
        -2.210789941,
        53.003039823
       ],
       [
        -2.210491932,
        53.003037845
       ],
       [
        -2.210488652,
        53.003217616
       ],
       [
        -2.210786663,
        53.003219595
       ]
      ]
     ],
     [
      [
       [
        -2.214068044,
        53.003061534
       ],
       [
        -2.214071309,
        53.002881762
       ],
       [
        -2.213773301,
        53.002879792
       ],
       [
        -2.213770035,
        53.003059564
       ],
       [
        -2.214068044,
        53.003061534
       ]
      ]
     ],
     [
      [
       [
        -2.21108795,
        53.003041801
       ],
       [
        -2.211091228,
        53.002862029
       ],
       [
        -2.21079322,
        53.002860052
       ],
       [
        -2.210789941,
        53.003039823
       ],
       [
        -2.21108795,
        53.003041801
       ]
      ]
     ],
     [
      [
       [
        -2.211389236,
        53.002864006
       ],
       [
        -2.211392512,
        53.002684234
       ],
       [
        -2.211094505,
        53.002682258
       ],
       [
        -2.211091228,
        53.002862029
       ],
       [
        -2.211389236,
        53.002864006
       ]
      ]
     ],
     [
      [
       [
        -2.213167478,
        53.003415165
       ],
       [
        -2.213183822,
        53.002516307
       ],
       [
        -2.212885816,
        53.002514335
       ],
       [
        -2.212882546,
        53.002694106
       ],
       [
        -2.212584539,
        53.002692133
       ],
       [
        -2.212581268,
        53.002871905
       ],
       [
        -2.212879276,
        53.002873878
       ],
       [
        -2.212869466,
        53.003413192
       ],
       [
        -2.213167478,
        53.003415165
       ]
      ]
     ],
     [
      [
       [
        -2.211690519,
        53.00268621
       ],
       [
        -2.211693793,
        53.002506439
       ],
       [
        -2.211395788,
        53.002504463
       ],
       [
        -2.211392512,
        53.002684234
       ],
       [
        -2.211690519,
        53.00268621
       ]
      ]
     ],
     [
      [
       [
        -2.214375845,
        53.002524188
       ],
       [
        -2.214379108,
        53.002344417
       ],
       [
        -2.214081104,
        53.002342447
       ],
       [
        -2.214077839,
        53.002522219
       ],
       [
        -2.214375845,
        53.002524188
       ]
      ]
     ],
     [
      [
       [
        -2.213481827,
        53.002518278
       ],
       [
        -2.213488362,
        53.002158735
       ],
       [
        -2.213190359,
        53.002156764
       ],
       [
        -2.213183822,
        53.002516307
       ],
       [
        -2.213481827,
        53.002518278
       ]
      ]
     ],
     [
      [
       [
        -2.212584539,
        53.002692133
       ],
       [
        -2.21258781,
        53.002512362
       ],
       [
        -2.212885816,
        53.002514335
       ],
       [
        -2.212892356,
        53.002154792
       ],
       [
        -2.212296349,
        53.002150845
       ],
       [
        -2.212293077,
        53.002330617
       ],
       [
        -2.211995073,
        53.002328642
       ],
       [
        -2.211991799,
        53.002508414
       ],
       [
        -2.212289805,
        53.002510388
       ],
       [
        -2.212286532,
        53.00269016
       ],
       [
        -2.212584539,
        53.002692133
       ]
      ]
     ],
     [
      [
       [
        -2.214677113,
        53.002346385
       ],
       [
        -2.214680376,
        53.002166613
       ],
       [
        -2.214382372,
        53.002164645
       ],
       [
        -2.214379108,
        53.002344417
       ],
       [
        -2.214677113,
        53.002346385
       ]
      ]
     ],
     [
      [
       [
        -2.214081104,
        53.002342447
       ],
       [
        -2.214084369,
        53.002162676
       ],
       [
        -2.213786365,
        53.002160706
       ],
       [
        -2.213783099,
        53.002340477
       ],
       [
        -2.214081104,
        53.002342447
       ]
      ]
     ],
     [
      [
       [
        -2.214382372,
        53.002164645
       ],
       [
        -2.214385636,
        53.001984873
       ],
       [
        -2.214087634,
        53.001982904
       ],
       [
        -2.214084369,
        53.002162676
       ],
       [
        -2.214382372,
        53.002164645
       ]
      ]
     ],
     [
      [
       [
        -2.213786365,
        53.002160706
       ],
       [
        -2.213789631,
        53.001980934
       ],
       [
        -2.213491629,
        53.001978964
       ],
       [
        -2.213488362,
        53.002158735
       ],
       [
        -2.213786365,
        53.002160706
       ]
      ]
     ],
     [
      [
       [
        -2.213190359,
        53.002156764
       ],
       [
        -2.213193627,
        53.001976992
       ],
       [
        -2.212895625,
        53.00197502
       ],
       [
        -2.212892356,
        53.002154792
       ],
       [
        -2.213190359,
        53.002156764
       ]
      ]
     ],
     [
      [
       [
        -2.213491629,
        53.001978964
       ],
       [
        -2.213494897,
        53.001799192
       ],
       [
        -2.213196896,
        53.001797221
       ],
       [
        -2.213193627,
        53.001976992
       ],
       [
        -2.213491629,
        53.001978964
       ]
      ]
     ],
     [
      [
       [
        -2.213196896,
        53.001797221
       ],
       [
        -2.213200164,
        53.001617449
       ],
       [
        -2.212902165,
        53.001615477
       ],
       [
        -2.212898895,
        53.001795249
       ],
       [
        -2.213196896,
        53.001797221
       ]
      ]
     ]
    ]
   },
   "properties": {
    "candidate_id": 1362,
    "pixel_count": 36,
    "hectares": 1.44,
    "bsi": 0.1323,
    "mean_ndvi": 0.083,
    "compactness": 0.032,
    "matched_site_reference": null,
    "lon": -2.2129702433430682,
    "lat": 53.00287947424919,
    "label": "active_institutional",
    "site_name": "Royal Stoke University Hospital",
    "notes": "",
    "maps_url": "https://www.google.com/maps/@53.002879,-2.212970,250m/data=!3m1!1e3",
    "registered": false
   }
  },
  {
   "type": "Feature",
   "geometry": {
    "type": "MultiPolygon",
    "coordinates": [
     [
      [
       [
        -2.131179472,
        53.004642346
       ],
       [
        -2.131183081,
        53.004462578
       ],
       [
        -2.130885068,
        53.0044604
       ],
       [
        -2.130881458,
        53.004640168
       ],
       [
        -2.131179472,
        53.004642346
       ]
      ]
     ],
     [
      [
       [
        -2.130285429,
        53.00463581
       ],
       [
        -2.130289043,
        53.004456043
       ],
       [
        -2.12999103,
        53.004453863
       ],
       [
        -2.129987415,
        53.00463363
       ],
       [
        -2.130285429,
        53.00463581
       ]
      ]
     ],
     [
      [
       [
        -2.130296269,
        53.004096507
       ],
       [
        -2.130299882,
        53.003916739
       ],
       [
        -2.130001873,
        53.003914559
       ],
       [
        -2.129998259,
        53.004094327
       ],
       [
        -2.130296269,
        53.004096507
       ]
      ]
     ],
     [
      [
       [
        -2.130587055,
        53.004458222
       ],
       [
        -2.130590667,
        53.004278454
       ],
       [
        -2.130888679,
        53.004280632
       ],
       [
        -2.13089229,
        53.004100865
       ],
       [
        -2.1311903,
        53.004103042
       ],
       [
        -2.131197519,
        53.003743507
       ],
       [
        -2.130899511,
        53.003741329
       ],
       [
        -2.1308959,
        53.003921097
       ],
       [
        -2.130597891,
        53.003918919
       ],
       [
        -2.130594279,
        53.004098686
       ],
       [
        -2.130296269,
        53.004096507
       ],
       [
        -2.130289043,
        53.004456043
       ],
       [
        -2.130587055,
        53.004458222
       ]
      ]
     ],
     [
      [
       [
        -2.130597891,
        53.003918919
       ],
       [
        -2.130601503,
        53.003739151
       ],
       [
        -2.130303495,
        53.003736972
       ],
       [
        -2.130299882,
        53.003916739
       ],
       [
        -2.130597891,
        53.003918919
       ]
      ]
     ],
     [
      [
       [
        -2.130303495,
        53.003736972
       ],
       [
        -2.130307108,
        53.003557204
       ],
       [
        -2.130009102,
        53.003555024
       ],
       [
        -2.130005487,
        53.003734792
       ],
       [
        -2.130303495,
        53.003736972
       ]
      ]
     ],
     [
      [
       [
        -2.131201128,
        53.003563739
       ],
       [
        -2.131204738,
        53.003383971
       ],
       [
        -2.130608727,
        53.003379615
       ],
       [
        -2.130605115,
        53.003559383
       ],
       [
        -2.131201128,
        53.003563739
       ]
      ]
     ],
     [
      [
       [
        -2.130009102,
        53.003555024
       ],
       [
        -2.130012716,
        53.003375256
       ],
       [
        -2.12971471,
        53.003373076
       ],
       [
        -2.129711095,
        53.003552843
       ],
       [
        -2.130009102,
        53.003555024
       ]
      ]
     ],
     [
      [
       [
        -2.130608727,
        53.003379615
       ],
       [
        -2.130612338,
        53.003199847
       ],
       [
        -2.130314334,
        53.003197668
       ],
       [
        -2.130310721,
        53.003377436
       ],
       [
        -2.130608727,
        53.003379615
       ]
      ]
     ]
    ]
   },
   "properties": {
    "candidate_id": 1361,
    "pixel_count": 15,
    "hectares": 0.6,
    "bsi": 0.1355,
    "mean_ndvi": 0.0304,
    "compactness": 0.082,
    "matched_site_reference": null,
    "lon": -2.1307151688175017,
    "lat": 53.00401566612686,
    "label": "active_industrial",
    "site_name": "Mossfield Road estate - D&G Bus, IAE",
    "notes": "",
    "maps_url": "https://www.google.com/maps/@53.004016,-2.130715,250m/data=!3m1!1e3",
    "registered": false
   }
  },
  {
   "type": "Feature",
   "geometry": {
    "type": "MultiPolygon",
    "coordinates": [
     [
      [
       [
        -2.199916866,
        53.075243651
       ],
       [
        -2.199920198,
        53.075063882
       ],
       [
        -2.200218704,
        53.075065889
       ],
       [
        -2.200222035,
        53.07488612
       ],
       [
        -2.199326522,
        53.074880098
       ],
       [
        -2.199323187,
        53.075059867
       ],
       [
        -2.199024682,
        53.075057858
       ],
       [
        -2.199021346,
        53.075237627
       ],
       [
        -2.199916866,
        53.075243651
       ]
      ]
     ],
     [
      [
       [
        -2.198736189,
        53.074516542
       ],
       [
        -2.198739526,
        53.074336774
       ],
       [
        -2.198441026,
        53.074334763
       ],
       [
        -2.198437688,
        53.074514532
       ],
       [
        -2.198736189,
        53.074516542
       ]
      ]
     ],
     [
      [
       [
        -2.199326522,
        53.074880098
       ],
       [
        -2.199329857,
        53.074700329
       ],
       [
        -2.199926863,
        53.074704345
       ],
       [
        -2.199933528,
        53.074344807
       ],
       [
        -2.199635027,
        53.0743428
       ],
       [
        -2.199638361,
        53.074163031
       ],
       [
        -2.199339862,
        53.074161023
       ],
       [
        -2.199333192,
        53.074520561
       ],
       [
        -2.198736189,
        53.074516542
       ],
       [
        -2.198732852,
        53.074696311
       ],
       [
        -2.199031354,
        53.074698321
       ],
       [
        -2.199028018,
        53.074878089
       ],
       [
        -2.199326522,
        53.074880098
       ]
      ]
     ]
    ]
   },
   "properties": {
    "candidate_id": 1320,
    "pixel_count": 15,
    "hectares": 0.6,
    "bsi": 0.1739,
    "mean_ndvi": 0.0801,
    "compactness": 0.184,
    "matched_site_reference": null,
    "lon": -2.199586115010783,
    "lat": 53.07483390021844,
    "label": "active_institutional",
    "site_name": "Ormiston Horizon Academy",
    "notes": "",
    "maps_url": "https://www.google.com/maps/@53.074834,-2.199586,250m/data=!3m1!1e3",
    "registered": false
   }
  },
  {
   "type": "Feature",
   "geometry": {
    "type": "MultiPolygon",
    "coordinates": [
     [
      [
       [
        -2.11730486,
        52.998067566
       ],
       [
        -2.117308526,
        52.997887799
       ],
       [
        -2.117010559,
        52.997885587
       ],
       [
        -2.117006892,
        52.998065354
       ],
       [
        -2.11730486,
        52.998067566
       ]
      ]
     ],
     [
      [
       [
        -2.116410956,
        52.998060927
       ],
       [
        -2.116414626,
        52.99788116
       ],
       [
        -2.11611666,
        52.997878945
       ],
       [
        -2.116112989,
        52.998058712
       ],
       [
        -2.116410956,
        52.998060927
       ]
      ]
     ],
     [
      [
       [
        -2.11611666,
        52.997878945
       ],
       [
        -2.116120331,
        52.997699178
       ],
       [
        -2.115822366,
        52.997696963
       ],
       [
        -2.115818693,
        52.99787673
       ],
       [
        -2.11611666,
        52.997878945
       ]
      ]
     ],
     [
      [
       [
        -2.117010559,
        52.997885587
       ],
       [
        -2.117014227,
        52.997705819
       ],
       [
        -2.116716262,
        52.997703606
       ],
       [
        -2.11671993,
        52.997523839
       ],
       [
        -2.116421966,
        52.997521625
       ],
       [
        -2.116414626,
        52.99788116
       ],
       [
        -2.117010559,
        52.997885587
       ]
      ]
     ],
     [
      [
       [
        -2.116421966,
        52.997521625
       ],
       [
        -2.116425636,
        52.997341858
       ],
       [
        -2.116127673,
        52.997339643
       ],
       [
        -2.116124002,
        52.997519411
       ],
       [
        -2.116421966,
        52.997521625
       ]
      ]
     ],
     [
      [
       [
        -2.118213413,
        52.997355129
       ],
       [
        -2.118217076,
        52.997175362
       ],
       [
        -2.117919114,
        52.997173152
       ],
       [
        -2.11791545,
        52.997352919
       ],
       [
        -2.118213413,
        52.997355129
       ]
      ]
     ],
     [
      [
       [
        -2.117610158,
        52.997710243
       ],
       [
        -2.117613823,
        52.997530476
       ],
       [
        -2.117315858,
        52.997528264
       ],
       [
        -2.117319525,
        52.997348497
       ],
       [
        -2.117617487,
        52.997350708
       ],
       [
        -2.117624817,
        52.996991174
       ],
       [
        -2.117326857,
        52.996988962
       ],
       [
        -2.117323191,
        52.99716873
       ],
       [
        -2.116727268,
        52.997164304
       ],
       [
        -2.116723599,
        52.997344072
       ],
       [
        -2.117021562,
        52.997346285
       ],
       [
        -2.117014227,
        52.997705819
       ],
       [
        -2.117610158,
        52.997710243
       ]
      ]
     ]
    ]
   },
   "properties": {
    "candidate_id": 1367,
    "pixel_count": 15,
    "hectares": 0.6,
    "bsi": 0.1748,
    "mean_ndvi": 0.0802,
    "compactness": 0.097,
    "matched_site_reference": null,
    "lon": -2.1171150154425207,
    "lat": 52.99763464983217,
    "label": "active_industrial",
    "site_name": "Park Hall Business Village",
    "notes": "",
    "maps_url": "https://www.google.com/maps/@52.997635,-2.117115,250m/data=!3m1!1e3",
    "registered": false
   }
  },
  {
   "type": "Feature",
   "geometry": {
    "type": "MultiPolygon",
    "coordinates": [
     [
      [
       [
        -2.147201014,
        52.9932515
       ],
       [
        -2.147204555,
        52.993071731
       ],
       [
        -2.146906619,
        52.993069594
       ],
       [
        -2.146903076,
        52.993249362
       ],
       [
        -2.147201014,
        52.9932515
       ]
      ]
     ],
     [
      [
       [
        -2.148098363,
        52.993078138
       ],
       [
        -2.1481019,
        52.992898369
       ],
       [
        -2.147803966,
        52.992896234
       ],
       [
        -2.147800427,
        52.993076003
       ],
       [
        -2.148098363,
        52.993078138
       ]
      ]
     ],
     [
      [
       [
        -2.147502491,
        52.993073867
       ],
       [
        -2.147506031,
        52.992894098
       ],
       [
        -2.147208096,
        52.992891962
       ],
       [
        -2.147204555,
        52.993071731
       ],
       [
        -2.147502491,
        52.993073867
       ]
      ]
     ],
     [
      [
       [
        -2.148399835,
        52.992900503
       ],
       [
        -2.148403372,
        52.992720734
       ],
       [
        -2.148105438,
        52.9927186
       ],
       [
        -2.1481019,
        52.992898369
       ],
       [
        -2.148399835,
        52.992900503
       ]
      ]
     ],
     [
      [
       [
        -2.147215179,
        52.992532424
       ],
       [
        -2.147218721,
        52.992352655
       ],
       [
        -2.14692079,
        52.992350518
       ],
       [
        -2.146917247,
        52.992530287
       ],
       [
        -2.147215179,
        52.992532424
       ]
      ]
     ],
     [
      [
       [
        -2.149300705,
        52.992547364
       ],
       [
        -2.149304238,
        52.992367595
       ],
       [
        -2.148708375,
        52.99236333
       ],
       [
        -2.148711911,
        52.992183561
       ],
       [
        -2.148116051,
        52.992179293
       ],
       [
        -2.148108976,
        52.992538831
       ],
       [
        -2.149300705,
        52.992547364
       ]
      ]
     ],
     [
      [
       [
        -2.147516652,
        52.992354792
       ],
       [
        -2.147523732,
        52.991995254
       ],
       [
        -2.147225803,
        52.991993117
       ],
       [
        -2.147218721,
        52.992352655
       ],
       [
        -2.147516652,
        52.992354792
       ]
      ]
     ]
    ]
   },
   "properties": {
    "candidate_id": 1371,
    "pixel_count": 13,
    "hectares": 0.52,
    "bsi": 0.1204,
    "mean_ndvi": 0.1414,
    "compactness": 0.113,
    "matched_site_reference": null,
    "lon": -2.1481529066765255,
    "lat": 52.992635958341495,
    "label": "active_industrial",
    "site_name": "Fenton - Victoria Industrial Complex",
    "notes": "",
    "maps_url": "https://www.google.com/maps/@52.992636,-2.148153,250m/data=!3m1!1e3",
    "registered": false
   }
  },
  {
   "type": "Feature",
   "geometry": {
    "type": "MultiPolygon",
    "coordinates": [
     [
      [
       [
        -2.175700177,
        53.077056078
       ],
       [
        -2.17570361,
        53.07687631
       ],
       [
        -2.175405094,
        53.076874242
       ],
       [
        -2.175401659,
        53.07705401
       ],
       [
        -2.175700177,
        53.077056078
       ]
      ]
     ],
     [
      [
       [
        -2.176588869,
        53.077421813
       ],
       [
        -2.176595729,
        53.077062278
       ],
       [
        -2.176297212,
        53.077060212
       ],
       [
        -2.176304074,
        53.076700676
       ],
       [
        -2.176005559,
        53.07669861
       ],
       [
        -2.175995262,
        53.077237913
       ],
       [
        -2.176293781,
        53.07723998
       ],
       [
        -2.176290349,
        53.077419747
       ],
       [
        -2.176588869,
        53.077421813
       ]
      ]
     ],
     [
      [
       [
        -2.177196192,
        53.076886639
       ],
       [
        -2.177199619,
        53.076706872
       ],
       [
        -2.176901104,
        53.076704807
       ],
       [
        -2.176897675,
        53.076884575
       ],
       [
        -2.177196192,
        53.076886639
       ]
      ]
     ],
     [
      [
       [
        -2.17750156,
        53.076529168
       ],
       [
        -2.177504986,
        53.0763494
       ],
       [
        -2.177206474,
        53.076347336
       ],
       [
        -2.177203046,
        53.076527104
       ],
       [
        -2.17750156,
        53.076529168
       ]
      ]
     ],
     [
      [
       [
        -2.176307505,
        53.076520909
       ],
       [
        -2.176310936,
        53.076341141
       ],
       [
        -2.176012423,
        53.076339075
       ],
       [
        -2.176008991,
        53.076518842
       ],
       [
        -2.176307505,
        53.076520909
       ]
      ]
     ],
     [
      [
       [
        -2.176609448,
        53.076343207
       ],
       [
        -2.176612878,
        53.076163439
       ],
       [
        -2.176314367,
        53.076161373
       ],
       [
        -2.176310936,
        53.076341141
       ],
       [
        -2.176609448,
        53.076343207
       ]
      ]
     ],
     [
      [
       [
        -2.176012423,
        53.076339075
       ],
       [
        -2.176015856,
        53.076159307
       ],
       [
        -2.175717344,
        53.07615724
       ],
       [
        -2.175713911,
        53.076337007
       ],
       [
        -2.176012423,
        53.076339075
       ]
      ]
     ],
     [
      [
       [
        -2.176911389,
        53.076165504
       ],
       [
        -2.176914818,
        53.075985737
       ],
       [
        -2.176616308,
        53.075983672
       ],
       [
        -2.176612878,
        53.076163439
       ],
       [
        -2.176911389,
        53.076165504
       ]
      ]
     ]
    ]
   },
   "properties": {
    "candidate_id": 1319,
    "pixel_count": 12,
    "hectares": 0.48,
    "bsi": 0.1197,
    "mean_ndvi": 0.097,
    "compactness": 0.094,
    "matched_site_reference": null,
    "lon": -2.176525959185574,
    "lat": 53.076807090421035,
    "label": "heritage_constrained",
    "site_name": "Chatterley Whitfield Colliery - scheduled monument, part active enterprise centre",
    "notes": "",
    "maps_url": "https://www.google.com/maps/@53.076807,-2.176526,250m/data=!3m1!1e3",
    "registered": false
   }
  },
  {
   "type": "Feature",
   "geometry": {
    "type": "MultiPolygon",
    "coordinates": [
     [
      [
       [
        -2.185093625,
        53.022284175
       ],
       [
        -2.185097012,
        53.022104405
       ],
       [
        -2.184798874,
        53.022102362
       ],
       [
        -2.184795485,
        53.022282132
       ],
       [
        -2.185093625,
        53.022284175
       ]
      ]
     ],
     [
      [
       [
        -2.1851004,
        53.021924636
       ],
       [
        -2.185107175,
        53.021565096
       ],
       [
        -2.18480904,
        53.021563053
       ],
       [
        -2.184802263,
        53.021922593
       ],
       [
        -2.1851004,
        53.021924636
       ]
      ]
     ],
     [
      [
       [
        -2.183914636,
        53.02155692
       ],
       [
        -2.183918028,
        53.02137715
       ],
       [
        -2.183619895,
        53.021375104
       ],
       [
        -2.183616501,
        53.021554874
       ],
       [
        -2.183914636,
        53.02155692
       ]
      ]
     ],
     [
      [
       [
        -2.184510906,
        53.021561009
       ],
       [
        -2.184514296,
        53.02138124
       ],
       [
        -2.185110563,
        53.021385326
       ],
       [
        -2.185120725,
        53.020846017
       ],
       [
        -2.184822595,
        53.020843974
       ],
       [
        -2.184815818,
        53.021203514
       ],
       [
        -2.183921421,
        53.02119738
       ],
       [
        -2.183918028,
        53.02137715
       ],
       [
        -2.184216162,
        53.021379195
       ],
       [
        -2.184212771,
        53.021558965
       ],
       [
        -2.184510906,
        53.021561009
       ]
      ]
     ]
    ]
   },
   "properties": {
    "candidate_id": 1350,
    "pixel_count": 11,
    "hectares": 0.44,
    "bsi": 0.1277,
    "mean_ndvi": 0.1267,
    "compactness": 0.154,
    "matched_site_reference": null,
    "lon": -2.184782553416169,
    "lat": 53.02153018195364,
    "label": "active_retail",
    "site_name": "Holdcroft car dealership - stock yards and accident repair centre, Clough St Hanley",
    "notes": "",
    "maps_url": "https://www.google.com/maps/@53.021530,-2.184783,250m/data=!3m1!1e3",
    "registered": false
   }
  },
  {
   "type": "Feature",
   "geometry": {
    "type": "MultiPolygon",
    "coordinates": [
     [
      [
       [
        -2.21255248,
        53.053573179
       ],
       [
        -2.212555757,
        53.053393409
       ],
       [
        -2.212257401,
        53.053391434
       ],
       [
        -2.212254122,
        53.053571204
       ],
       [
        -2.21255248,
        53.053573179
       ]
      ]
     ],
     [
      [
       [
        -2.211657407,
        53.053567252
       ],
       [
        -2.211660688,
        53.053387482
       ],
       [
        -2.211362331,
        53.053385505
       ],
       [
        -2.211359049,
        53.053565275
       ],
       [
        -2.211657407,
        53.053567252
       ]
      ]
     ],
     [
      [
       [
        -2.212854114,
        53.053395384
       ],
       [
        -2.21285739,
        53.053215614
       ],
       [
        -2.212559035,
        53.053213639
       ],
       [
        -2.212555757,
        53.053393409
       ],
       [
        -2.212854114,
        53.053395384
       ]
      ]
     ],
     [
      [
       [
        -2.211959044,
        53.053389459
       ],
       [
        -2.211962324,
        53.053209689
       ],
       [
        -2.211663969,
        53.053207712
       ],
       [
        -2.211660688,
        53.053387482
       ],
       [
        -2.211959044,
        53.053389459
       ]
      ]
     ],
     [
      [
       [
        -2.211663969,
        53.053207712
       ],
       [
        -2.21166725,
        53.053027942
       ],
       [
        -2.211368896,
        53.053025965
       ],
       [
        -2.211365614,
        53.053205735
       ],
       [
        -2.211663969,
        53.053207712
       ]
      ]
     ],
     [
      [
       [
        -2.211070542,
        53.053023987
       ],
       [
        -2.211073825,
        53.052844217
       ],
       [
        -2.210775473,
        53.052842238
       ],
       [
        -2.210772188,
        53.053022008
       ],
       [
        -2.211070542,
        53.053023987
       ]
      ]
     ],
     [
      [
       [
        -2.211372178,
        53.052846195
       ],
       [
        -2.21137546,
        53.052666425
       ],
       [
        -2.211077109,
        53.052664447
       ],
       [
        -2.211073825,
        53.052844217
       ],
       [
        -2.211372178,
        53.052846195
       ]
      ]
     ],
     [
      [
       [
        -2.211673812,
        53.052668402
       ],
       [
        -2.211677092,
        53.052488632
       ],
       [
        -2.211378742,
        53.052486655
       ],
       [
        -2.21137546,
        53.052666425
       ],
       [
        -2.211673812,
        53.052668402
       ]
      ]
     ],
     [
      [
       [
        -2.211975443,
        53.052490609
       ],
       [
        -2.211978722,
        53.052310839
       ],
       [
        -2.211680373,
        53.052308862
       ],
       [
        -2.211677092,
        53.052488632
       ],
       [
        -2.211975443,
        53.052490609
       ]
      ]
     ]
    ]
   },
   "properties": {
    "candidate_id": 1331,
    "pixel_count": 9,
    "hectares": 0.36,
    "bsi": 0.15,
    "mean_ndvi": 0.0573,
    "compactness": 0.087,
    "matched_site_reference": null,
    "lon": -2.2118643301918888,
    "lat": 53.053129132013574,
    "label": "active_industrial",
    "site_name": "Daniel Platts Business Park, Charles Clowes Drive Tunstall",
    "notes": "",
    "maps_url": "https://www.google.com/maps/@53.053129,-2.211864,250m/data=!3m1!1e3",
    "registered": false
   }
  },
  {
   "type": "Feature",
   "geometry": {
    "type": "MultiPolygon",
    "coordinates": [
     [
      [
       [
        -2.178056951,
        53.000300966
       ],
       [
        -2.17806378,
        52.999941426
       ],
       [
        -2.176871838,
        52.999933181
       ],
       [
        -2.176868419,
        53.000112951
       ],
       [
        -2.176570432,
        53.000110888
       ],
       [
        -2.176567012,
        53.000290658
       ],
       [
        -2.177460975,
        53.000296845
       ],
       [
        -2.177464392,
        53.000117075
       ],
       [
        -2.177762379,
        53.000119136
       ],
       [
        -2.177758963,
        53.000298906
       ],
       [
        -2.178056951,
        53.000300966
       ]
      ]
     ],
     [
      [
       [
        -2.177772625,
        52.999579825
       ],
       [
        -2.17777604,
        52.999400055
       ],
       [
        -2.177478059,
        52.999397995
       ],
       [
        -2.177474642,
        52.999577765
       ],
       [
        -2.177772625,
        52.999579825
       ]
      ]
     ]
    ]
   },
   "properties": {
    "candidate_id": 1364,
    "pixel_count": 9,
    "hectares": 0.36,
    "bsi": 0.1176,
    "mean_ndvi": 0.0847,
    "compactness": 0.283,
    "matched_site_reference": null,
    "lon": -2.1775302317596963,
    "lat": 53.00013750732428,
    "label": "active_industrial",
    "site_name": "Hyde Park Industrial Estate, Whieldon Road",
    "notes": "",
    "maps_url": "https://www.google.com/maps/@53.000138,-2.177530,250m/data=!3m1!1e3",
    "registered": false
   }
  },
  {
   "type": "Feature",
   "geometry": {
    "type": "MultiPolygon",
    "coordinates": [
     [
      [
       [
        -2.176785847,
        52.988785365
       ],
       [
        -2.176789265,
        52.988605595
       ],
       [
        -2.176491357,
        52.988603532
       ],
       [
        -2.176487938,
        52.988783302
       ],
       [
        -2.176785847,
        52.988785365
       ]
      ]
     ],
     [
      [
       [
        -2.177087172,
        52.988607657
       ],
       [
        -2.177097422,
        52.988068346
       ],
       [
        -2.176799519,
        52.988066284
       ],
       [
        -2.176789265,
        52.988605595
       ],
       [
        -2.177087172,
        52.988607657
       ]
      ]
     ],
     [
      [
       [
        -2.176799519,
        52.988066284
       ],
       [
        -2.176806355,
        52.987706743
       ],
       [
        -2.176508454,
        52.98770468
       ],
       [
        -2.176501615,
        52.988064221
       ],
       [
        -2.176799519,
        52.988066284
       ]
      ]
     ],
     [
      [
       [
        -2.176508454,
        52.98770468
       ],
       [
        -2.176511873,
        52.98752491
       ],
       [
        -2.176213973,
        52.987522846
       ],
       [
        -2.176210553,
        52.987702616
       ],
       [
        -2.176508454,
        52.98770468
       ]
      ]
     ],
     [
      [
       [
        -2.176213973,
        52.987522846
       ],
       [
        -2.176217393,
        52.987343076
       ],
       [
        -2.175919495,
        52.987341011
       ],
       [
        -2.175916073,
        52.987520782
       ],
       [
        -2.176213973,
        52.987522846
       ]
      ]
     ],
     [
      [
       [
        -2.17681319,
        52.987347202
       ],
       [
        -2.176816608,
        52.987167432
       ],
       [
        -2.176518711,
        52.987165369
       ],
       [
        -2.176515292,
        52.987345139
       ],
       [
        -2.17681319,
        52.987347202
       ]
      ]
     ]
    ]
   },
   "properties": {
    "candidate_id": 1375,
    "pixel_count": 9,
    "hectares": 0.36,
    "bsi": 0.1207,
    "mean_ndvi": 0.0784,
    "compactness": 0.126,
    "matched_site_reference": null,
    "lon": -2.176799518828108,
    "lat": 52.988066283883335,
    "label": "car_park",
    "site_name": "bet365 Stadium car park, Sideway",
    "notes": "car_park is already a hard exclusion class; survived because this car park is not mapped in exclusion_zones - OSM coverage gap, not a logic gap",
    "maps_url": "https://www.google.com/maps/@52.988066,-2.176800,250m/data=!3m1!1e3",
    "registered": false
   }
  },
  {
   "type": "Feature",
   "geometry": {
    "type": "MultiPolygon",
    "coordinates": [
     [
      [
       [
        -2.210921059,
        52.995848961
       ],
       [
        -2.210924336,
        52.995669189
       ],
       [
        -2.210626377,
        52.995667212
       ],
       [
        -2.210623099,
        52.995846983
       ],
       [
        -2.210921059,
        52.995848961
       ]
      ]
     ],
     [
      [
       [
        -2.211814938,
        52.995854889
       ],
       [
        -2.211821485,
        52.995495346
       ],
       [
        -2.210927613,
        52.995489418
       ],
       [
        -2.210924336,
        52.995669189
       ],
       [
        -2.211222294,
        52.995671166
       ],
       [
        -2.211219018,
        52.995850938
       ],
       [
        -2.211814938,
        52.995854889
       ]
      ]
     ],
     [
      [
       [
        -2.210927613,
        52.995489418
       ],
       [
        -2.21093089,
        52.995309646
       ],
       [
        -2.210632934,
        52.995307668
       ],
       [
        -2.210629656,
        52.99548744
       ],
       [
        -2.210927613,
        52.995489418
       ]
      ]
     ],
     [
      [
       [
        -2.211228846,
        52.995311623
       ],
       [
        -2.211232122,
        52.995131851
       ],
       [
        -2.210934167,
        52.995129874
       ],
       [
        -2.21093089,
        52.995309646
       ],
       [
        -2.211228846,
        52.995311623
       ]
      ]
     ]
    ]
   },
   "properties": {
    "candidate_id": 1370,
    "pixel_count": 8,
    "hectares": 0.32,
    "bsi": 0.1436,
    "mean_ndvi": 0.0311,
    "compactness": 0.208,
    "matched_site_reference": null,
    "lon": -2.2113712734824227,
    "lat": 52.99567215431683,
    "label": "active_industrial",
    "site_name": "Premier Foods Stoke Bakery, Clayton Lane",
    "notes": "factory roofs and service yards",
    "maps_url": "https://www.google.com/maps/@52.995672,-2.211371,250m/data=!3m1!1e3",
    "registered": false
   }
  },
  {
   "type": "Feature",
   "geometry": {
    "type": "MultiPolygon",
    "coordinates": [
     [
      [
       [
        -2.21759526,
        53.055224572
       ],
       [
        -2.217598517,
        53.055044802
       ],
       [
        -2.217300149,
        53.05504284
       ],
       [
        -2.217296891,
        53.05522261
       ],
       [
        -2.21759526,
        53.055224572
       ]
      ]
     ],
     [
      [
       [
        -2.218195254,
        53.055048725
       ],
       [
        -2.218198508,
        53.054868955
       ],
       [
        -2.217900141,
        53.054866994
       ],
       [
        -2.217896885,
        53.055046764
       ],
       [
        -2.218195254,
        53.055048725
       ]
      ]
     ],
     [
      [
       [
        -2.218795242,
        53.054872874
       ],
       [
        -2.218801745,
        53.054513334
       ],
       [
        -2.21850338,
        53.054511375
       ],
       [
        -2.218500128,
        53.054691145
       ],
       [
        -2.218201762,
        53.054689185
       ],
       [
        -2.218198508,
        53.054868955
       ],
       [
        -2.218795242,
        53.054872874
       ]
      ]
     ],
     [
      [
       [
        -2.21850338,
        53.054511375
       ],
       [
        -2.218506633,
        53.054331604
       ],
       [
        -2.218208269,
        53.054329644
       ],
       [
        -2.218205016,
        53.054509414
       ],
       [
        -2.21850338,
        53.054511375
       ]
      ]
     ],
     [
      [
       [
        -2.217906651,
        53.054507453
       ],
       [
        -2.217909906,
        53.054327683
       ],
       [
        -2.217611543,
        53.054325722
       ],
       [
        -2.217608286,
        53.054505492
       ],
       [
        -2.217906651,
        53.054507453
       ]
      ]
     ],
     [
      [
       [
        -2.218208269,
        53.054329644
       ],
       [
        -2.218211523,
        53.054149874
       ],
       [
        -2.217913161,
        53.054147913
       ],
       [
        -2.217909906,
        53.054327683
       ],
       [
        -2.218208269,
        53.054329644
       ]
      ]
     ]
    ]
   },
   "properties": {
    "candidate_id": 1329,
    "pixel_count": 8,
    "hectares": 0.32,
    "bsi": 0.1232,
    "mean_ndvi": 0.1302,
    "compactness": 0.128,
    "matched_site_reference": null,
    "lon": -2.218312428765134,
    "lat": 53.05475733353666,
    "label": "active_industrial",
    "site_name": "Browns Distribution, Chemical Lane Tunstall",
    "notes": "",
    "maps_url": "https://www.google.com/maps/@53.054757,-2.218312,250m/data=!3m1!1e3",
    "registered": false
   }
  },
  {
   "type": "Feature",
   "geometry": {
    "type": "MultiPolygon",
    "coordinates": [
     [
      [
       [
        -2.200773033,
        53.012861546
       ],
       [
        -2.200776354,
        53.012681775
       ],
       [
        -2.200478279,
        53.012679772
       ],
       [
        -2.200474957,
        53.012859543
       ],
       [
        -2.200773033,
        53.012861546
       ]
      ]
     ],
     [
      [
       [
        -2.200176881,
        53.012857538
       ],
       [
        -2.200190176,
        53.012138456
       ],
       [
        -2.199892105,
        53.012136451
       ],
       [
        -2.19988878,
        53.012316221
       ],
       [
        -2.199292636,
        53.012312209
       ],
       [
        -2.199289308,
        53.01249198
       ],
       [
        -2.199587382,
        53.012493986
       ],
       [
        -2.199584055,
        53.012673757
       ],
       [
        -2.19988213,
        53.012675763
       ],
       [
        -2.199878805,
        53.012855533
       ],
       [
        -2.200176881,
        53.012857538
       ]
      ]
     ]
    ]
   },
   "properties": {
    "candidate_id": 1353,
    "pixel_count": 8,
    "hectares": 0.32,
    "bsi": 0.1185,
    "mean_ndvi": 0.1414,
    "compactness": 0.31,
    "matched_site_reference": null,
    "lon": -2.200106932548652,
    "lat": 53.01260985249314,
    "label": "active_industrial",
    "site_name": "MAN Truck & Bus / Beech's Garage, Shelton New Road",
    "notes": "workshop roof and HGV yard",
    "maps_url": "https://www.google.com/maps/@53.012610,-2.200107,250m/data=!3m1!1e3",
    "registered": false
   }
  },
  {
   "type": "Feature",
   "geometry": {
    "type": "MultiPolygon",
    "coordinates": [
     [
      [
       [
        -2.150996629,
        52.997234134
       ],
       [
        -2.151000155,
        52.997054365
       ],
       [
        -2.150404229,
        52.997050109
       ],
       [
        -2.1504007,
        52.997229878
       ],
       [
        -2.150996629,
        52.997234134
       ]
      ]
     ],
     [
      [
       [
        -2.151298119,
        52.997056492
       ],
       [
        -2.151301644,
        52.996876723
       ],
       [
        -2.151003682,
        52.996874596
       ],
       [
        -2.151000155,
        52.997054365
       ],
       [
        -2.151298119,
        52.997056492
       ]
      ]
     ],
     [
      [
       [
        -2.151003682,
        52.996874596
       ],
       [
        -2.151010734,
        52.996515058
       ],
       [
        -2.150712774,
        52.99651293
       ],
       [
        -2.150705719,
        52.996872468
       ],
       [
        -2.151003682,
        52.996874596
       ]
      ]
     ],
     [
      [
       [
        -2.150414814,
        52.996510802
       ],
       [
        -2.150418343,
        52.996331033
       ],
       [
        -2.150120385,
        52.996328904
       ],
       [
        -2.150116855,
        52.996508673
       ],
       [
        -2.150414814,
        52.996510802
       ]
      ]
     ]
    ]
   },
   "properties": {
    "candidate_id": 1368,
    "pixel_count": 6,
    "hectares": 0.24,
    "bsi": 0.1139,
    "mean_ndvi": 0.1042,
    "compactness": 0.188,
    "matched_site_reference": null,
    "lon": -2.1509031853692653,
    "lat": 52.99693380994993,
    "label": "active_industrial",
    "site_name": "Fen Park Industrial Estate, Park Lane Fenton",
    "notes": "north-light sawtooth factory roof",
    "maps_url": "https://www.google.com/maps/@52.996934,-2.150903,250m/data=!3m1!1e3",
    "registered": false
   }
  },
  {
   "type": "Feature",
   "geometry": {
    "type": "MultiPolygon",
    "coordinates": [
     [
      [
       [
        -2.223028192,
        53.06838494
       ],
       [
        -2.223031428,
        53.06820517
       ],
       [
        -2.222732968,
        53.068203221
       ],
       [
        -2.222729731,
        53.068382991
       ],
       [
        -2.223028192,
        53.06838494
       ]
      ]
     ],
     [
      [
       [
        -2.223329887,
        53.068207119
       ],
       [
        -2.223333122,
        53.068027349
       ],
       [
        -2.223034663,
        53.068025401
       ],
       [
        -2.223031428,
        53.06820517
       ],
       [
        -2.223329887,
        53.068207119
       ]
      ]
     ],
     [
      [
       [
        -2.222434508,
        53.068201271
       ],
       [
        -2.222437746,
        53.068021501
       ],
       [
        -2.222736205,
        53.068023451
       ],
       [
        -2.222742678,
        53.067663911
       ],
       [
        -2.222444222,
        53.067661962
       ],
       [
        -2.222440984,
        53.067841732
       ],
       [
        -2.222142527,
        53.067839781
       ],
       [
        -2.222136049,
        53.068199321
       ],
       [
        -2.222434508,
        53.068201271
       ]
      ]
     ]
    ]
   },
   "properties": {
    "candidate_id": 1323,
    "pixel_count": 6,
    "hectares": 0.24,
    "bsi": 0.1287,
    "mean_ndvi": 0.0838,
    "compactness": 0.233,
    "matched_site_reference": null,
    "lon": -2.2227843295550866,
    "lat": 53.068113661262245,
    "label": "active_industrial",
    "site_name": "Churchill China works, Marlborough Way Tunstall",
    "notes": "",
    "maps_url": "https://www.google.com/maps/@53.068114,-2.222784,250m/data=!3m1!1e3",
    "registered": false
   }
  },
  {
   "type": "Feature",
   "geometry": {
    "type": "MultiPolygon",
    "coordinates": [
     [
      [
       [
        -2.196772482,
        52.987483717
       ],
       [
        -2.196775817,
        52.987303945
       ],
       [
        -2.196477917,
        52.987301933
       ],
       [
        -2.196474581,
        52.987481704
       ],
       [
        -2.196772482,
        52.987483717
       ]
      ]
     ],
     [
      [
       [
        -2.196180017,
        52.987299919
       ],
       [
        -2.196183355,
        52.987120148
       ],
       [
        -2.195885456,
        52.987118133
       ],
       [
        -2.195882118,
        52.987297905
       ],
       [
        -2.196180017,
        52.987299919
       ]
      ]
     ],
     [
      [
       [
        -2.195286318,
        52.987293874
       ],
       [
        -2.195293,
        52.986934331
       ],
       [
        -2.194995103,
        52.986932314
       ],
       [
        -2.194988419,
        52.987291857
       ],
       [
        -2.195286318,
        52.987293874
       ]
      ]
     ],
     [
      [
       [
        -2.194693863,
        52.987110068
       ],
       [
        -2.194697206,
        52.986930297
       ],
       [
        -2.194399309,
        52.986928279
       ],
       [
        -2.194395964,
        52.98710805
       ],
       [
        -2.194693863,
        52.987110068
       ]
      ]
     ]
    ]
   },
   "properties": {
    "candidate_id": 1377,
    "pixel_count": 5,
    "hectares": 0.2,
    "bsi": 0.1233,
    "mean_ndvi": 0.0321,
    "compactness": 0.194,
    "matched_site_reference": null,
    "lon": -2.1956444658011782,
    "lat": 52.9872603382068,
    "label": "active_industrial",
    "site_name": "Michelin / Waters Edge Business Park, Campbell Road",
    "notes": "internal roads, roofs and plant hardstanding",
    "maps_url": "https://www.google.com/maps/@52.987260,-2.195644,250m/data=!3m1!1e3",
    "registered": false
   }
  },
  {
   "type": "Feature",
   "geometry": {
    "type": "MultiPolygon",
    "coordinates": [
     [
      [
       [
        -2.175803269,
        53.009095252
       ],
       [
        -2.175806694,
        53.008915482
       ],
       [
        -2.176104741,
        53.008917547
       ],
       [
        -2.176111588,
        53.008558008
       ],
       [
        -2.175813543,
        53.008555943
       ],
       [
        -2.175810118,
        53.008735712
       ],
       [
        -2.175512073,
        53.008733646
       ],
       [
        -2.175505221,
        53.009093186
       ],
       [
        -2.175803269,
        53.009095252
       ]
      ]
     ],
     [
      [
       [
        -2.176409632,
        53.008560072
       ],
       [
        -2.176413054,
        53.008380303
       ],
       [
        -2.176115011,
        53.008378238
       ],
       [
        -2.176111588,
        53.008558008
       ],
       [
        -2.176409632,
        53.008560072
       ]
      ]
     ]
    ]
   },
   "properties": {
    "candidate_id": 1358,
    "pixel_count": 5,
    "hectares": 0.2,
    "bsi": 0.1422,
    "mean_ndvi": 0.0309,
    "compactness": 0.321,
    "matched_site_reference": "64620",
    "lon": -2.176046500937032,
    "lat": 53.00884522653328,
    "label": "register_matched",
    "site_name": "",
    "notes": "",
    "maps_url": "",
    "registered": true
   }
  },
  {
   "type": "Feature",
   "geometry": {
    "type": "MultiPolygon",
    "coordinates": [
     [
      [
       [
        -2.191013571,
        53.056485136
       ],
       [
        -2.191016938,
        53.056305367
       ],
       [
        -2.191315314,
        53.056307395
       ],
       [
        -2.19131868,
        53.056127626
       ],
       [
        -2.190721932,
        53.056123569
       ],
       [
        -2.190718563,
        53.056303338
       ],
       [
        -2.190420188,
        53.056301308
       ],
       [
        -2.190416818,
        53.056481077
       ],
       [
        -2.191013571,
        53.056485136
       ]
      ]
     ],
     [
      [
       [
        -2.19102704,
        53.05576606
       ],
       [
        -2.191030407,
        53.055586291
       ],
       [
        -2.190732037,
        53.055584262
       ],
       [
        -2.190728669,
        53.055764031
       ],
       [
        -2.19102704,
        53.05576606
       ]
      ]
     ]
    ]
   },
   "properties": {
    "candidate_id": 1327,
    "pixel_count": 5,
    "hectares": 0.2,
    "bsi": 0.1436,
    "mean_ndvi": 0.0233,
    "compactness": 0.321,
    "matched_site_reference": null,
    "lon": -2.19101761186306,
    "lat": 53.05626941316105,
    "label": "construction",
    "site_name": "Haywood Hospital, Burslem - development site off Haywood Rd",
    "notes": "active construction in Google imagery (\u00a92026, exact date unknown); cannot determine whether work began before or after the 2025-09 to 2026-07 scene window",
    "maps_url": "https://www.google.com/maps/@53.056269,-2.191018,250m/data=!3m1!1e3",
    "registered": false
   }
  },
  {
   "type": "Feature",
   "geometry": {
    "type": "MultiPolygon",
    "coordinates": [
     [
      [
       [
        -2.171659496,
        52.991986054
       ],
       [
        -2.171662936,
        52.991806284
       ],
       [
        -2.171067078,
        52.991802132
       ],
       [
        -2.171063636,
        52.991981902
       ],
       [
        -2.171659496,
        52.991986054
       ]
      ]
     ],
     [
      [
       [
        -2.170769149,
        52.991800054
       ],
       [
        -2.170776036,
        52.991440514
       ],
       [
        -2.17047811,
        52.991438436
       ],
       [
        -2.170474665,
        52.991618206
       ],
       [
        -2.170176737,
        52.991616127
       ],
       [
        -2.170173291,
        52.991795897
       ],
       [
        -2.170769149,
        52.991800054
       ]
      ]
     ]
    ]
   },
   "properties": {
    "candidate_id": 1374,
    "pixel_count": 5,
    "hectares": 0.2,
    "bsi": 0.1173,
    "mean_ndvi": 0.1131,
    "compactness": 0.321,
    "matched_site_reference": null,
    "lon": -2.171006803570823,
    "lat": 52.99183767037256,
    "label": "active_industrial",
    "site_name": "Grove Road / Kemball Avenue works, Fenton - Gardiner's, DePe Gear",
    "notes": "north-light sawtooth roofs and materials yard",
    "maps_url": "https://www.google.com/maps/@52.991838,-2.171007,250m/data=!3m1!1e3",
    "registered": false
   }
  },
  {
   "type": "Feature",
   "geometry": {
    "type": "MultiPolygon",
    "coordinates": [
     [
      [
       [
        -2.204201788,
        53.053337825
       ],
       [
        -2.2042051,
        53.053158056
       ],
       [
        -2.203906745,
        53.05315606
       ],
       [
        -2.203903432,
        53.053335829
       ],
       [
        -2.204201788,
        53.053337825
       ]
      ]
     ],
     [
      [
       [
        -2.204801808,
        53.053162045
       ],
       [
        -2.204805118,
        53.052982276
       ],
       [
        -2.204506765,
        53.052980281
       ],
       [
        -2.204503454,
        53.053160051
       ],
       [
        -2.204801808,
        53.053162045
       ]
      ]
     ],
     [
      [
       [
        -2.203910059,
        53.05297629
       ],
       [
        -2.203913372,
        53.05279652
       ],
       [
        -2.203316668,
        53.052792526
       ],
       [
        -2.203313352,
        53.052972296
       ],
       [
        -2.203910059,
        53.05297629
       ]
      ]
     ],
     [
      [
       [
        -2.204211724,
        53.052798516
       ],
       [
        -2.204215035,
        53.052618747
       ],
       [
        -2.203916685,
        53.052616751
       ],
       [
        -2.203913372,
        53.05279652
       ],
       [
        -2.204211724,
        53.052798516
       ]
      ]
     ]
    ]
   },
   "properties": {
    "candidate_id": 1332,
    "pixel_count": 5,
    "hectares": 0.2,
    "bsi": 0.1325,
    "mean_ndvi": 0.0681,
    "compactness": 0.194,
    "matched_site_reference": null,
    "lon": -2.204147416066295,
    "lat": 53.053049794716,
    "label": "active_industrial",
    "site_name": "Scotia Business Park, Tunstall",
    "notes": "",
    "maps_url": "https://www.google.com/maps/@53.053050,-2.204147,250m/data=!3m1!1e3",
    "registered": false
   }
  }
 ]
}